{
  "type": "FeatureCollection",
  "features": [
    {
      "type": "Feature",
      "properties": {
        "norad_id": 32101,
        "name": "FENGYUN 1C DEB",
        "group": "fengyun-1c-debris",
        "lat": -27.179250285647086,
        "lon": 71.68015962771551,
        "alt_km": 806.4508955446545,
        "timestamp": "2025-12-23T09:49:07.368949+00:00",
        "meta_object_name": "FENGYUN 1C DEB",
        "meta_object_id": "1999-025CQT",
        "meta_epoch": "2025-12-22T12:16:15.090528",
        "meta_mean_motion": 14.01704344,
        "meta_eccentricity": 0.01198922,
        "meta_inclination": 99.0339,
        "meta_ra_of_asc_node": 255.4767,
        "meta_arg_of_pericenter": 211.4479,
        "meta_mean_anomaly": 147.9481,
        "meta_ephemeris_type": 0,
        "meta_classification_type": "U",
        "meta_norad_cat_id": 32101,
        "meta_element_set_no": 999,
        "meta_rev_at_epoch": 93319,
        "meta_bstar": 0.0017623583,
        "meta_mean_motion_dot": 2.803e-05,
        "meta_mean_motion_ddot": 0,
        "tle_line1": "1 32101U 99025CQT 25356.51128577  .00002803  00000+0  17624-2 0  9993",
        "tle_line2": "2 32101  99.0339 255.4767 0119892 211.4479 147.9481 14.01704344933193"
      },
      "geometry": {
        "type": "Point",
        "coordinates": [
          71.68015962771551,
          -27.179250285647086
        ]
      }
    },
    {
      "type": "Feature",
      "properties": {
        "norad_id": 32105,
        "name": "FENGYUN 1C DEB",
        "group": "fengyun-1c-debris",
        "lat": -38.45334028870512,
        "lon": 3.3425928199756085,
        "alt_km": 1116.1040851204743,
        "timestamp": "2025-12-23T09:49:07.368959+00:00",
        "meta_object_name": "FENGYUN 1C DEB",
        "meta_object_id": "1999-025CQX",
        "meta_epoch": "2025-12-22T19:40:51.089664",
        "meta_mean_motion": 13.40313124,
        "meta_eccentricity": 0.03950662,
        "meta_inclination": 103.4635,
        "meta_ra_of_asc_node": 351.5951,
        "meta_arg_of_pericenter": 54.1876,
        "meta_mean_anomaly": 309.5284,
        "meta_ephemeris_type": 0,
        "meta_classification_type": "U",
        "meta_norad_cat_id": 32105,
        "meta_element_set_no": 999,
        "meta_rev_at_epoch": 59846,
        "meta_bstar": 0.0027226604,
        "meta_mean_motion_dot": 2.286e-05,
        "meta_mean_motion_ddot": 0,
        "tle_line1": "1 32105U 99025CQX 25356.82003576  .00002286  00000+0  27227-2 0  9997",
        "tle_line2": "2 32105 103.4635 351.5951 0395066  54.1876 309.5284 13.40313124598469"
      },
      "geometry": {
        "type": "Point",
        "coordinates": [
          3.3425928199756085,
          -38.45334028870512
        ]
      }
    },
    {
      "type": "Feature",
      "properties": {
        "norad_id": 32106,
        "name": "FENGYUN 1C DEB",
        "group": "fengyun-1c-debris",
        "lat": -14.42330475975246,
        "lon": -24.93429879621414,
        "alt_km": 736.070798972728,
        "timestamp": "2025-12-23T09:49:07.368970+00:00",
        "meta_object_name": "FENGYUN 1C DEB",
        "meta_object_id": "1999-025CQY",
        "meta_epoch": "2025-12-20T04:29:25.586880",
        "meta_mean_motion": 14.27133511,
        "meta_eccentricity": 0.01104398,
        "meta_inclination": 101.4619,
        "meta_ra_of_asc_node": 327.8635,
        "meta_arg_of_pericenter": 22.7964,
        "meta_mean_anomaly": 337.8056,
        "meta_ephemeris_type": 0,
        "meta_classification_type": "U",
        "meta_norad_cat_id": 32106,
        "meta_element_set_no": 999,
        "meta_rev_at_epoch": 69498,
        "meta_bstar": 0.0025604023,
        "meta_mean_motion_dot": 6.603e-05,
        "meta_mean_motion_ddot": 0,
        "tle_line1": "1 32106U 99025CQY 25354.18710170  .00006603  00000+0  25604-2 0  9994",
        "tle_line2": "2 32106 101.4619 327.8635 0110439  22.7964 337.8056 14.27133511694984"
      },
      "geometry": {
        "type": "Point",
        "coordinates": [
          -24.93429879621414,
          -14.42330475975246
        ]
      }
    },
    {
      "type": "Feature",
      "properties": {
        "norad_id": 32109,
        "name": "FENGYUN 1C DEB",
        "group": "fengyun-1c-debris",
        "lat": 38.847473500316596,
        "lon": -130.1707039285683,
        "alt_km": 844.2953434876754,
        "timestamp": "2025-12-23T09:49:07.368980+00:00",
        "meta_object_name": "FENGYUN 1C DEB",
        "meta_object_id": "1999-025CRB",
        "meta_epoch": "2025-12-21T22:28:03.390240",
        "meta_mean_motion": 14.33972725,
        "meta_eccentricity": 0.02051862,
        "meta_inclination": 98.359,
        "meta_ra_of_asc_node": 235.2052,
        "meta_arg_of_pericenter": 284.854,
        "meta_mean_anomaly": 73.0001,
        "meta_ephemeris_type": 0,
        "meta_classification_type": "U",
        "meta_norad_cat_id": 32109,
        "meta_element_set_no": 999,
        "meta_rev_at_epoch": 65020,
        "meta_bstar": 0.00052577117,
        "meta_mean_motion_dot": 1.807e-05,
        "meta_mean_motion_ddot": 0,
        "tle_line1": "1 32109U 99025CRB 25355.93615035  .00001807  00000+0  52577-3 0  9996",
        "tle_line2": "2 32109  98.3590 235.2052 0205186 284.8540  73.0001 14.33972725650200"
      },
      "geometry": {
        "type": "Point",
        "coordinates": [
          -130.1707039285683,
          38.847473500316596
        ]
      }
    },
    {
      "type": "Feature",
      "properties": {
        "norad_id": 32110,
        "name": "FENGYUN 1C DEB",
        "group": "fengyun-1c-debris",
        "lat": -47.21999092869259,
        "lon": -22.86931142754721,
        "alt_km": 809.349443676907,
        "timestamp": "2025-12-23T09:49:07.368990+00:00",
        "meta_object_name": "FENGYUN 1C DEB",
        "meta_object_id": "1999-025CRC",
        "meta_epoch": "2025-12-21T18:10:14.132928",
        "meta_mean_motion": 14.28951589,
        "meta_eccentricity": 0.0033503,
        "meta_inclination": 99.5434,
        "meta_ra_of_asc_node": 165.799,
        "meta_arg_of_pericenter": 340.8373,
        "meta_mean_anomaly": 33.9307,
        "meta_ephemeris_type": 0,
        "meta_classification_type": "U",
        "meta_norad_cat_id": 32110,
        "meta_element_set_no": 999,
        "meta_rev_at_epoch": 64517,
        "meta_bstar": 0.0011210482,
        "meta_mean_motion_dot": 2.799e-05,
        "meta_mean_motion_ddot": 0,
        "tle_line1": "1 32110U 99025CRC 25355.75710802  .00002799  00000+0  11210-2 0  9995",
        "tle_line2": "2 32110  99.5434 165.7990 0033503 340.8373  33.9307 14.28951589645172"
      },
      "geometry": {
        "type": "Point",
        "coordinates": [
          -22.86931142754721,
          -47.21999092869259
        ]
      }
    },
    {
      "type": "Feature",
      "properties": {
        "norad_id": 32111,
        "name": "FENGYUN 1C DEB",
        "group": "fengyun-1c-debris",
        "lat": -30.938436249046372,
        "lon": 1.9561307243835702,
        "alt_km": 870.5908819935912,
        "timestamp": "2025-12-23T09:49:07.369000+00:00",
        "meta_object_name": "FENGYUN 1C DEB",
        "meta_object_id": "1999-025CRD",
        "meta_epoch": "2025-12-17T23:15:28.889568",
        "meta_mean_motion": 14.31552028,
        "meta_eccentricity": 0.01199865,
        "meta_inclination": 98.4433,
        "meta_ra_of_asc_node": 351.5571,
        "meta_arg_of_pericenter": 189.336,
        "meta_mean_anomaly": 199.2635,
        "meta_ephemeris_type": 0,
        "meta_classification_type": "U",
        "meta_norad_cat_id": 32111,
        "meta_element_set_no": 999,
        "meta_rev_at_epoch": 96106,
        "meta_bstar": 0.00016396968,
        "meta_mean_motion_dot": 4.28e-06,
        "meta_mean_motion_ddot": 0,
        "tle_line1": "1 32111U 99025CRD 25351.96908437  .00000428  00000+0  16397-3 0  9997",
        "tle_line2": "2 32111  98.4433 351.5571 0119986 189.3360 199.2635 14.31552028961060"
      },
      "geometry": {
        "type": "Point",
        "coordinates": [
          1.9561307243835702,
          -30.938436249046372
        ]
      }
    },
    {
      "type": "Feature",
      "properties": {
        "norad_id": 32113,
        "name": "FENGYUN 1C DEB",
        "group": "fengyun-1c-debris",
        "lat": -52.654971981708755,
        "lon": -160.06403722273768,
        "alt_km": 777.6044470176157,
        "timestamp": "2025-12-23T09:49:07.369011+00:00",
        "meta_object_name": "FENGYUN 1C DEB",
        "meta_object_id": "1999-025CRF",
        "meta_epoch": "2025-12-22T20:39:08.544384",
        "meta_mean_motion": 13.9458115,
        "meta_eccentricity": 0.02384613,
        "meta_inclination": 99.0255,
        "meta_ra_of_asc_node": 31.4218,
        "meta_arg_of_pericenter": 198.943,
        "meta_mean_anomaly": 160.2746,
        "meta_ephemeris_type": 0,
        "meta_classification_type": "U",
        "meta_norad_cat_id": 32113,
        "meta_element_set_no": 999,
        "meta_rev_at_epoch": 63027,
        "meta_bstar": 0.00063270189,
        "meta_mean_motion_dot": 1.027e-05,
        "meta_mean_motion_ddot": 0,
        "tle_line1": "1 32113U 99025CRF 25356.86051556  .00001027  00000+0  63270-3 0  9992",
        "tle_line2": "2 32113  99.0255  31.4218 0238461 198.9430 160.2746 13.94581150630270"
      },
      "geometry": {
        "type": "Point",
        "coordinates": [
          -160.06403722273768,
          -52.654971981708755
        ]
      }
    }
  ]
}